[{"OBJECT_NAME":"STARLINK-6046","OBJECT_ID":"2023-078AB","EPOCH":"2026-03-09T22:30:25.453440","MEAN_MOTION":14.98325377,"ECCENTRICITY":0.00026049,"INCLINATION":70.001,"RA_OF_ASC_NODE":343.9855,"ARG_OF_PERICENTER":276.335,"MEAN_ANOMALY":83.7513,"EPHEMERIS_TYPE":0,"CLASSIFICATION_TYPE":"U","NORAD_CAT_ID":56792,"ELEMENT_SET_NO":999,"REV_AT_EPOCH":15271,"BSTAR":3.1778489e-5,"MEAN_MOTION_DOT":2.86e-6,"MEAN_MOTION_DDOT":0},{"OBJECT_NAME":"CZ-6A DEB","OBJECT_ID":"2022-151QP","EPOCH":"2026-03-09T02:57:40.392288","MEAN_MOTION":14.90154105,"ECCENTRICITY":0.00458103,"INCLINATION":98.6088,"RA_OF_ASC_NODE":136.2447,"ARG_OF_PERICENTER":198.9434,"MEAN_ANOMALY":161.0079,"EPHEMERIS_TYPE":0,"CLASSIFICATION_TYPE":"U","NORAD_CAT_ID":54902,"ELEMENT_SET_NO":999,"REV_AT_EPOCH":17583,"BSTAR":0.0048981783,"MEAN_MOTION_DOT":0.00048606,"MEAN_MOTION_DDOT":0}]
